$$SOE
2460721.500000000, A.D. 2025-Feb-15 00:00:00.0000, 4.889475910253950E+08, -1.818149943419444E+08, -1.486834494606733E+07,
2460728.500000000, A.D. 2025-Feb-22 00:00:00.0000, 4.926580279455719E+08, -1.734996342835040E+08, -1.504042133271374E+07,
2460735.500000000, A.D. 2025-Mar-01 00:00:00.0000, 4.962008340023136E+08, -1.651252884956228E+08, -1.520738009699439E+07,
2460742.500000000, A.D. 2025-Mar-08 00:00:00.0000, 4.995754284885156E+08, -1.566950131825130E+08, -1.536918379899388E+07,
2460749.500000000, A.D. 2025-Mar-15 00:00:00.0000, 5.027812748191592E+08, -1.482118536374529E+08, -1.552579645769147E+07,
2460756.500000000, A.D. 2025-Mar-22 00:00:00.0000, 5.058178775780650E+08, -1.396788437857692E+08, -1.567718328357863E+07,
2460763.500000000, A.D. 2025-Mar-29 00:00:00.0000, 5.086847809622935E+08, -1.310990080026410E+08, -1.582331072088396E+07,
2460770.500000000, A.D. 2025-Apr-05 00:00:00.0000, 5.113815689485929E+08, -1.224753620654993E+08, -1.596414657305922E+07,
2460777.500000000, A.D. 2025-Apr-12 00:00:00.0000, 5.139078652560155E+08, -1.138109131353512E+08, -1.609966002665035E+07,
2460784.500000000, A.D. 2025-Apr-19 00:00:00.0000, 5.162633329176659E+08, -1.051086596470143E+08, -1.622982162868650E+07,
2460791.500000000, A.D. 2025-Apr-26 00:00:00.0000, 5.184476737332066E+08, -9.637159130991319E+07, -1.635460325935826E+07,
2460798.500000000, A.D. 2025-May-03 00:00:00.0000, 5.204606277157214E+08, -8.760268919884267E+07, -1.647397810906682E+07,
2460805.500000000, A.D. 2025-May-10 00:00:00.0000, 5.223019725614904E+08, -7.880492592466725E+07, -1.658792066193663E+07,
2460812.500000000, A.D. 2025-May-17 00:00:00.0000, 5.239715231793909E+08, -6.998126592478088E+07, -1.669640669265481E+07,
2460819.500000000, A.D. 2025-May-24 00:00:00.0000, 5.254691314536094E+08, -6.113466592676927E+07, -1.679941329715471E+07,
2460826.500000000, A.D. 2025-May-31 00:00:00.0000, 5.267946866566986E+08, -5.226807527310230E+07, -1.689691897012645E+07,
2460833.500000000, A.D. 2025-Jun-07 00:00:00.0000, 5.279481161116038E+08, -4.338443490024839E+07, -1.698890359410027E+07,
2460840.500000000, A.D. 2025-Jun-14 00:00:00.0000, 5.289293837392893E+08, -3.448667563761820E+07, -1.707534817765030E+07,
2460847.500000000, A.D. 2025-Jun-21 00:00:00.0000, 5.297384877096545E+08, -2.557771909765375E+07, -1.715623472168798E+07,
2460854.500000000, A.D. 2025-Jun-28 00:00:00.0000, 5.303754603229266E+08, -1.666047939210353E+07, -1.723154635658548E+07,
2460861.500000000, A.D. 2025-Jul-05 00:00:00.0000, 5.308403686038446E+08, -7.737863517051237E+06, -1.730126743472459E+07,
2460868.500000000, A.D. 2025-Jul-12 00:00:00.0000, 5.311333144170812E+08, 1.187228788753346E+06, -1.736538353496753E+07,
2460875.500000000, A.D. 2025-Jul-19 00:00:00.0000, 5.312544342926182E+08, 1.011190513797832E+07, -1.742388144335531E+07,
2460882.500000000, A.D. 2025-Jul-26 00:00:00.0000, 5.312038991700230E+08, 1.903328048584606E+07, -1.747674913381394E+07,
2460889.500000000, A.D. 2025-Aug-02 00:00:00.0000, 5.309819141264969E+08, 2.794847704161159E+07, -1.752397575296990E+07,
2460896.500000000, A.D. 2025-Aug-09 00:00:00.0000, 5.305887181124098E+08, 3.685462408748359E+07, -1.756555161226299E+07,
2460903.500000000, A.D. 2025-Aug-16 00:00:00.0000, 5.300245837722194E+08, 4.574885764307675E+07, -1.760146819941628E+07,
2460910.500000000, A.D. 2025-Aug-23 00:00:00.0000, 5.292898176442239E+08, 5.462831999246410E+07, -1.763171823459148E+07,
2460917.500000000, A.D. 2025-Aug-30 00:00:00.0000, 5.283847610679013E+08, 6.349015978817280E+07, -1.765629574285363E+07,
2460924.500000000, A.D. 2025-Sep-06 00:00:00.0000, 5.273097903802670E+08, 7.233153373342015E+07, -1.767519593082018E+07,
2460931.500000000, A.D. 2025-Sep-13 00:00:00.0000, 5.260653147315527E+08, 8.114960736067313E+07, -1.768841491685881E+07,
2460938.500000000, A.D. 2025-Sep-20 00:00:00.0000, 5.246517747938167E+08, 8.994155326178294E+07, -1.769594974927521E+07,
2460945.500000000, A.D. 2025-Sep-27 00:00:00.0000, 5.230696434195380E+08, 9.870454988138567E+07, -1.769779855510325E+07,
2460952.500000000, A.D. 2025-Oct-04 00:00:00.0000, 5.213194262323580E+08, 1.074357814137913E+08, -1.769396059022391E+07,
2460959.500000000, A.D. 2025-Oct-11 00:00:00.0000, 5.194016617758326E+08, 1.161324378614233E+08, -1.768443623344710E+07,
2460966.500000000, A.D. 2025-Oct-18 00:00:00.0000, 5.173169215034768E+08, 1.247917149814978E+08, -1.766922697293345E+07,
2460973.500000000, A.D. 2025-Oct-25 00:00:00.0000, 5.150658097493282E+08, 1.334108141332200E+08, -1.764833539687666E+07,
2460980.500000000, A.D. 2025-Nov-01 00:00:00.0000, 5.126489637183561E+08, 1.419869420424041E+08, -1.762176519090077E+07,
2460987.500000000, A.D. 2025-Nov-08 00:00:00.0000, 5.100670535314241E+08, 1.505173104535604E+08, -1.758952114808257E+07,
2460994.500000000, A.D. 2025-Nov-15 00:00:00.0000, 5.073207824730731E+08, 1.589991356121731E+08, -1.755160921018413E+07,
2461001.500000000, A.D. 2025-Nov-22 00:00:00.0000, 5.044108878450572E+08, 1.674296377980700E+08, -1.750803655932762E+07,
2461008.500000000, A.D. 2025-Nov-29 00:00:00.0000, 5.013381422716963E+08, 1.758060420455221E+08, -1.745881165354786E+07,
2461015.500000000, A.D. 2025-Dec-06 00:00:00.0000, 4.981033531789879E+08, 1.841255799157536E+08, -1.740394400854865E+07,
2461022.500000000, A.D. 2025-Dec-13 00:00:00.0000, 4.947073608824769E+08, 1.923854889532462E+08, -1.734344404101604E+07,
2461029.500000000, A.D. 2025-Dec-20 00:00:00.0000, 4.911510387776638E+08, 2.005830108492009E+08, -1.727732321050148E+07,
2461036.500000000, A.D. 2025-Dec-27 00:00:00.0000, 4.874352945581366E+08, 2.087153909040493E+08, -1.720559414969441E+07,
2461043.500000000, A.D. 2026-Jan-03 00:00:00.0000, 4.835610710016555E+08, 2.167798781749250E+08, -1.712827069951930E+07,
2461050.500000000, A.D. 2026-Jan-10 00:00:00.0000, 4.795293464339061E+08, 2.247737256308269E+08, -1.704536791455241E+07,
2461057.500000000, A.D. 2026-Jan-17 00:00:00.0000, 4.753411351024655E+08, 2.326941902256009E+08, -1.695690206750168E+07,
2461064.500000000, A.D. 2026-Jan-24 00:00:00.0000, 4.709974875388789E+08, 2.405385329131989E+08, -1.686289065794772E+07,
2461071.500000000, A.D. 2026-Jan-31 00:00:00.0000, 4.664994909322834E+08, 2.483040185997282E+08, -1.676335242799465E+07,
2461078.500000000, A.D. 2026-Feb-07 00:00:00.0000, 4.618482695762264E+08, 2.559879159769676E+08, -1.665830739504682E+07,
2461085.500000000, A.D. 2026-Feb-14 00:00:00.0000, 4.570449856421428E+08, 2.635874972239945E+08, -1.654777692609346E+07,
2461092.500000000, A.D. 2026-Feb-21 00:00:00.0000, 4.520908406673661E+08, 2.711000381552666E+08, -1.643178384185594E+07,
2461099.500000000, A.D. 2026-Feb-28 00:00:00.0000, 4.469870766720549E+08, 2.785228199693887E+08, -1.631035235694525E+07,
2461106.500000000, A.D. 2026-Mar-07 00:00:00.0000, 4.417349748457800E+08, 2.858531306503382E+08, -1.618350782637502E+07,
2461113.500000000, A.D. 2026-Mar-14 00:00:00.0000, 4.363358545806477E+08, 2.930882636898951E+08, -1.605127674361682E+07,
2461120.500000000, A.D. 2026-Mar-21 00:00:00.0000, 4.307910746336607E+08, 3.002255170288619E+08, -1.591368691691098E+07,
2461127.500000000, A.D. 2026-Mar-28 00:00:00.0000, 4.251020344069911E+08, 3.072621932458826E+08, -1.577076755529596E+07,
2461134.500000000, A.D. 2026-Apr-04 00:00:00.0000, 4.192701747409967E+08, 3.141956000296450E+08, -1.562254928764822E+07,
2461141.500000000, A.D. 2026-Apr-11 00:00:00.0000, 4.132969784933816E+08, 3.210230505765498E+08, -1.546906416903061E+07,
2461148.500000000, A.D. 2026-Apr-18 00:00:00.0000, 4.071839710641083E+08, 3.277418639092612E+08, -1.531034568929128E+07,
2461155.500000000, A.D. 2026-Apr-25 00:00:00.0000, 4.009327209127205E+08, 3.343493651326553E+08, -1.514642878672644E+07,
2461162.500000000, A.D. 2026-May-02 00:00:00.0000, 3.945448400996596E+08, 3.408428855989601E+08, -1.497734987188211E+07,
2461169.500000000, A.D. 2026-May-09 00:00:00.0000, 3.880219849768538E+08, 3.472197629170893E+08, -1.480314687819707E+07,
2461176.500000000, A.D. 2026-May-16 00:00:00.0000, 3.813658574060826E+08, 3.534773409456567E+08, -1.462385936277132E+07,
2461183.500000000, A.D. 2026-May-23 00:00:00.0000, 3.745782065570700E+08, 3.596129707925918E+08, -1.443952857846777E+07,
2461190.500000000, A.D. 2026-May-30 00:00:00.0000, 3.676608292053789E+08, 3.656240131411199E+08, -1.425019730053316E+07,
2461197.500000000, A.D. 2026-Jun-06 00:00:00.0000, 3.606155682114086E+08, 3.715078386308067E+08, -1.405590964604861E+07,
2461204.500000000, A.D. 2026-Jun-13 00:00:00.0000, 3.534443128472591E+08, 3.772618264951872E+08, -1.385671120640258E+07,
2461211.500000000, A.D. 2026-Jun-20 00:00:00.0000, 3.461490004702425E+08, 3.828833643827898E+08, -1.365264920800053E+07,
2461218.500000000, A.D. 2026-Jun-27 00:00:00.0000, 3.387316178433129E+08, 3.883698490226739E+08, -1.344377257340948E+07,
2461225.500000000, A.D. 2026-Jul-04 00:00:00.0000, 3.311942021012641E+08, 3.937186869612622E+08, -1.323013194647296E+07,
2461232.500000000, A.D. 2026-Jul-11 00:00:00.0000, 3.235388416158064E+08, 3.989272952403288E+08, -1.301177971571425E+07,
2461239.500000000, A.D. 2026-Jul-18 00:00:00.0000, 3.157676768513867E+08, 4.039931020436234E+08, -1.278877004267296E+07,
2461246.500000000, A.D. 2026-Jul-25 00:00:00.0000, 3.078829012352245E+08, 4.089135473166154E+08, -1.256115889739877E+07,
2461253.500000000, A.D. 2026-Aug-01 00:00:00.0000, 2.998867620885788E+08, 4.136860833130928E+08, -1.232900410960630E+07,
2461260.500000000, A.D. 2026-Aug-08 00:00:00.0000, 2.917815618330211E+08, 4.183081750348324E+08, -1.209236545824671E+07,
2461267.500000000, A.D. 2026-Aug-15 00:00:00.0000, 2.835696598859006E+08, 4.227773010170019E+08, -1.185130480087230E+07,
2461274.500000000, A.D. 2026-Aug-22 00:00:00.0000, 2.752534744830472E+08, 4.270909556819826E+08, -1.160588607329854E+07,
2461281.500000000, A.D. 2026-Aug-29 00:00:00.0000, 2.668354821369919E+08, 4.312466518895544E+08, -1.135617506167737E+07,
2461288.500000000, A.D. 2026-Sep-05 00:00:00.0000, 2.583182168617431E+08, 4.352419208185603E+08, -1.110223937686118E+07,
$$EOE